[{"OBJECT_NAME":"STARLINK-5584","OBJECT_ID":"2023-028AE","EPOCH":"2026-03-09T18:28:02.981280","MEAN_MOTION":14.98332641,"ECCENTRICITY":0.00029082,"INCLINATION":69.9998,"RA_OF_ASC_NODE":224.3096,"ARG_OF_PERICENTER":269.8174,"MEAN_ANOMALY":90.2652,"EPHEMERIS_TYPE":0,"CLASSIFICATION_TYPE":"U","NORAD_CAT_ID":55769,"ELEMENT_SET_NO":999,"REV_AT_EPOCH":16654,"BSTAR":2.8940536e-5,"MEAN_MOTION_DOT":2.52e-6,"MEAN_MOTION_DDOT":0},{"OBJECT_NAME":"RAPIDEYE 5","OBJECT_ID":"2008-040B","EPOCH":"2026-03-09T15:17:22.403904","MEAN_MOTION":15.02179038,"ECCENTRICITY":0.0014834,"INCLINATION":97.3944,"RA_OF_ASC_NODE":91.3825,"ARG_OF_PERICENTER":86.9831,"MEAN_ANOMALY":273.3091,"EPHEMERIS_TYPE":0,"CLASSIFICATION_TYPE":"U","NORAD_CAT_ID":33313,"ELEMENT_SET_NO":999,"REV_AT_EPOCH":95055,"BSTAR":0.00014028,"MEAN_MOTION_DOT":1.794e-5,"MEAN_MOTION_DDOT":0}]
